<?xml version="1.0" encoding="UTF-8"?>
<ndm xmlns:xsi="http://www.w3.org/2001/XMLSchema-instance" xsi:noNamespaceSchemaLocation="https://sanaregistry.org/r/ndmxml_unqualified/ndmxml-2.0.0-master-2.0.xsd">
<omm id="CCSDS_OMM_VERS" version="2.0">
<header><CREATION_DATE/><ORIGINATOR/></header><body><segment><metadata><OBJECT_NAME>KUIPER-00071</OBJECT_NAME><OBJECT_ID>2025-151C</OBJECT_ID><CENTER_NAME>EARTH</CENTER_NAME><REF_FRAME>TEME</REF_FRAME><TIME_SYSTEM>UTC</TIME_SYSTEM><MEAN_ELEMENT_THEORY>SGP4</MEAN_ELEMENT_THEORY></metadata><data><meanElements><EPOCH>2025-07-29T05:14:11.952096</EPOCH><MEAN_MOTION>15.35614726</MEAN_MOTION><ECCENTRICITY>.0005241</ECCENTRICITY><INCLINATION>51.8779</INCLINATION><RA_OF_ASC_NODE>225.1671</RA_OF_ASC_NODE><ARG_OF_PERICENTER>183.2006</ARG_OF_PERICENTER><MEAN_ANOMALY>176.8947</MEAN_ANOMALY></meanElements><tleParameters><EPHEMERIS_TYPE>0</EPHEMERIS_TYPE><CLASSIFICATION_TYPE>U</CLASSIFICATION_TYPE><NORAD_CAT_ID>64818</NORAD_CAT_ID><ELEMENT_SET_NO>999</ELEMENT_SET_NO><REV_AT_EPOCH>197</REV_AT_EPOCH><BSTAR>.37531E-3</BSTAR><MEAN_MOTION_DOT>.12837E-3</MEAN_MOTION_DOT><MEAN_MOTION_DDOT>0</MEAN_MOTION_DDOT></tleParameters></data></segment></body></omm>
<omm id="CCSDS_OMM_VERS" version="2.0">
<header><CREATION_DATE/><ORIGINATOR/></header><body><segment><metadata><OBJECT_NAME>KUIPER-00072</OBJECT_NAME><OBJECT_ID>2025-151D</OBJECT_ID><CENTER_NAME>EARTH</CENTER_NAME><REF_FRAME>TEME</REF_FRAME><TIME_SYSTEM>UTC</TIME_SYSTEM><MEAN_ELEMENT_THEORY>SGP4</MEAN_ELEMENT_THEORY></metadata><data><meanElements><EPOCH>2025-07-29T05:18:09.067392</EPOCH><MEAN_MOTION>15.35239410</MEAN_MOTION><ECCENTRICITY>.0004854</ECCENTRICITY><INCLINATION>51.8772</INCLINATION><RA_OF_ASC_NODE>225.1794</RA_OF_ASC_NODE><ARG_OF_PERICENTER>195.4182</ARG_OF_PERICENTER><MEAN_ANOMALY>164.6656</MEAN_ANOMALY></meanElements><tleParameters><EPHEMERIS_TYPE>0</EPHEMERIS_TYPE><CLASSIFICATION_TYPE>U</CLASSIFICATION_TYPE><NORAD_CAT_ID>64819</NORAD_CAT_ID><ELEMENT_SET_NO>999</ELEMENT_SET_NO><REV_AT_EPOCH>198</REV_AT_EPOCH><BSTAR>.39982E-3</BSTAR><MEAN_MOTION_DOT>.13534E-3</MEAN_MOTION_DOT><MEAN_MOTION_DDOT>0</MEAN_MOTION_DDOT></tleParameters></data></segment></body></omm>
<omm id="CCSDS_OMM_VERS" version="2.0">
<header><CREATION_DATE/><ORIGINATOR/></header><body><segment><metadata><OBJECT_NAME>KUIPER-00073</OBJECT_NAME><OBJECT_ID>2025-151E</OBJECT_ID><CENTER_NAME>EARTH</CENTER_NAME><REF_FRAME>TEME</REF_FRAME><TIME_SYSTEM>UTC</TIME_SYSTEM><MEAN_ELEMENT_THEORY>SGP4</MEAN_ELEMENT_THEORY></metadata><data><meanElements><EPOCH>2025-07-29T05:16:54.040224</EPOCH><MEAN_MOTION>15.35347828</MEAN_MOTION><ECCENTRICITY>.0005013</ECCENTRICITY><INCLINATION>51.8785</INCLINATION><RA_OF_ASC_NODE>225.1808</RA_OF_ASC_NODE><ARG_OF_PERICENTER>190.2031</ARG_OF_PERICENTER><MEAN_ANOMALY>169.8854</MEAN_ANOMALY></meanElements><tleParameters><EPHEMERIS_TYPE>0</EPHEMERIS_TYPE><CLASSIFICATION_TYPE>U</CLASSIFICATION_TYPE><NORAD_CAT_ID>64820</NORAD_CAT_ID><ELEMENT_SET_NO>999</ELEMENT_SET_NO><REV_AT_EPOCH>316</REV_AT_EPOCH><BSTAR>.36975E-3</BSTAR><MEAN_MOTION_DOT>.1253E-3</MEAN_MOTION_DOT><MEAN_MOTION_DDOT>0</MEAN_MOTION_DDOT></tleParameters></data></segment></body></omm>
<omm id="CCSDS_OMM_VERS" version="2.0">
<header><CREATION_DATE/><ORIGINATOR/></header><body><segment><metadata><OBJECT_NAME>KUIPER-00074</OBJECT_NAME><OBJECT_ID>2025-151F</OBJECT_ID><CENTER_NAME>EARTH</CENTER_NAME><REF_FRAME>TEME</REF_FRAME><TIME_SYSTEM>UTC</TIME_SYSTEM><MEAN_ELEMENT_THEORY>SGP4</MEAN_ELEMENT_THEORY></metadata><data><meanElements><EPOCH>2025-07-29T05:16:16.635072</EPOCH><MEAN_MOTION>15.35441094</MEAN_MOTION><ECCENTRICITY>.0005164</ECCENTRICITY><INCLINATION>51.8771</INCLINATION><RA_OF_ASC_NODE>225.1708</RA_OF_ASC_NODE><ARG_OF_PERICENTER>191.8882</ARG_OF_PERICENTER><MEAN_ANOMALY>168.1983</MEAN_ANOMALY></meanElements><tleParameters><EPHEMERIS_TYPE>0</EPHEMERIS_TYPE><CLASSIFICATION_TYPE>U</CLASSIFICATION_TYPE><NORAD_CAT_ID>64821</NORAD_CAT_ID><ELEMENT_SET_NO>999</ELEMENT_SET_NO><REV_AT_EPOCH>198</REV_AT_EPOCH><BSTAR>.4257E-3</BSTAR><MEAN_MOTION_DOT>.14533E-3</MEAN_MOTION_DOT><MEAN_MOTION_DDOT>0</MEAN_MOTION_DDOT></tleParameters></data></segment></body></omm>
<omm id="CCSDS_OMM_VERS" version="2.0">
<header><CREATION_DATE/><ORIGINATOR/></header><body><segment><metadata><OBJECT_NAME>KUIPER-00075</OBJECT_NAME><OBJECT_ID>2025-151G</OBJECT_ID><CENTER_NAME>EARTH</CENTER_NAME><REF_FRAME>TEME</REF_FRAME><TIME_SYSTEM>UTC</TIME_SYSTEM><MEAN_ELEMENT_THEORY>SGP4</MEAN_ELEMENT_THEORY></metadata><data><meanElements><EPOCH>2025-07-29T11:30:07.056576</EPOCH><MEAN_MOTION>15.35492224</MEAN_MOTION><ECCENTRICITY>.000496</ECCENTRICITY><INCLINATION>51.8781</INCLINATION><RA_OF_ASC_NODE>223.9177</RA_OF_ASC_NODE><ARG_OF_PERICENTER>183.6768</ARG_OF_PERICENTER><MEAN_ANOMALY>176.4182</MEAN_ANOMALY></meanElements><tleParameters><EPHEMERIS_TYPE>0</EPHEMERIS_TYPE><CLASSIFICATION_TYPE>U</CLASSIFICATION_TYPE><NORAD_CAT_ID>64822</NORAD_CAT_ID><ELEMENT_SET_NO>999</ELEMENT_SET_NO><REV_AT_EPOCH>202</REV_AT_EPOCH><BSTAR>.57371E-3</BSTAR><MEAN_MOTION_DOT>.19765E-3</MEAN_MOTION_DOT><MEAN_MOTION_DDOT>0</MEAN_MOTION_DDOT></tleParameters></data></segment></body></omm>
<omm id="CCSDS_OMM_VERS" version="2.0">
<header><CREATION_DATE/><ORIGINATOR/></header><body><segment><metadata><OBJECT_NAME>KUIPER-00076</OBJECT_NAME><OBJECT_ID>2025-151H</OBJECT_ID><CENTER_NAME>EARTH</CENTER_NAME><REF_FRAME>TEME</REF_FRAME><TIME_SYSTEM>UTC</TIME_SYSTEM><MEAN_ELEMENT_THEORY>SGP4</MEAN_ELEMENT_THEORY></metadata><data><meanElements><EPOCH>2025-07-29T05:17:18.423168</EPOCH><MEAN_MOTION>15.35309776</MEAN_MOTION><ECCENTRICITY>.0004896</ECCENTRICITY><INCLINATION>51.8772</INCLINATION><RA_OF_ASC_NODE>225.1756</RA_OF_ASC_NODE><ARG_OF_PERICENTER>191.9754</ARG_OF_PERICENTER><MEAN_ANOMALY>168.1116</MEAN_ANOMALY></meanElements><tleParameters><EPHEMERIS_TYPE>0</EPHEMERIS_TYPE><CLASSIFICATION_TYPE>U</CLASSIFICATION_TYPE><NORAD_CAT_ID>64823</NORAD_CAT_ID><ELEMENT_SET_NO>999</ELEMENT_SET_NO><REV_AT_EPOCH>198</REV_AT_EPOCH><BSTAR>.36134E-3</BSTAR><MEAN_MOTION_DOT>.12221E-3</MEAN_MOTION_DOT><MEAN_MOTION_DDOT>0</MEAN_MOTION_DDOT></tleParameters></data></segment></body></omm>
<omm id="CCSDS_OMM_VERS" version="2.0">
<header><CREATION_DATE/><ORIGINATOR/></header><body><segment><metadata><OBJECT_NAME>KUIPER-00077</OBJECT_NAME><OBJECT_ID>2025-151J</OBJECT_ID><CENTER_NAME>EARTH</CENTER_NAME><REF_FRAME>TEME</REF_FRAME><TIME_SYSTEM>UTC</TIME_SYSTEM><MEAN_ELEMENT_THEORY>SGP4</MEAN_ELEMENT_THEORY></metadata><data><meanElements><EPOCH>2025-07-28T18:23:18.293280</EPOCH><MEAN_MOTION>15.35135701</MEAN_MOTION><ECCENTRICITY>.0005516</ECCENTRICITY><INCLINATION>51.8788</INCLINATION><RA_OF_ASC_NODE>227.3875</RA_OF_ASC_NODE><ARG_OF_PERICENTER>197.5997</ARG_OF_PERICENTER><MEAN_ANOMALY>162.4799</MEAN_ANOMALY></meanElements><tleParameters><EPHEMERIS_TYPE>0</EPHEMERIS_TYPE><CLASSIFICATION_TYPE>U</CLASSIFICATION_TYPE><NORAD_CAT_ID>64824</NORAD_CAT_ID><ELEMENT_SET_NO>999</ELEMENT_SET_NO><REV_AT_EPOCH>190</REV_AT_EPOCH><BSTAR>.28615E-3</BSTAR><MEAN_MOTION_DOT>.954E-4</MEAN_MOTION_DOT><MEAN_MOTION_DDOT>0</MEAN_MOTION_DDOT></tleParameters></data></segment></body></omm>
<omm id="CCSDS_OMM_VERS" version="2.0">
<header><CREATION_DATE/><ORIGINATOR/></header><body><segment><metadata><OBJECT_NAME>KUIPER-00078</OBJECT_NAME><OBJECT_ID>2025-151K</OBJECT_ID><CENTER_NAME>EARTH</CENTER_NAME><REF_FRAME>TEME</REF_FRAME><TIME_SYSTEM>UTC</TIME_SYSTEM><MEAN_ELEMENT_THEORY>SGP4</MEAN_ELEMENT_THEORY></metadata><data><meanElements><EPOCH>2025-07-29T05:19:06.957120</EPOCH><MEAN_MOTION>15.35193642</MEAN_MOTION><ECCENTRICITY>.0005617</ECCENTRICITY><INCLINATION>51.8780</INCLINATION><RA_OF_ASC_NODE>225.1864</RA_OF_ASC_NODE><ARG_OF_PERICENTER>202.5000</ARG_OF_PERICENTER><MEAN_ANOMALY>157.5740</MEAN_ANOMALY></meanElements><tleParameters><EPHEMERIS_TYPE>0</EPHEMERIS_TYPE><CLASSIFICATION_TYPE>U</CLASSIFICATION_TYPE><NORAD_CAT_ID>64825</NORAD_CAT_ID><ELEMENT_SET_NO>999</ELEMENT_SET_NO><REV_AT_EPOCH>198</REV_AT_EPOCH><BSTAR>.57124E-3</BSTAR><MEAN_MOTION_DOT>.1949E-3</MEAN_MOTION_DOT><MEAN_MOTION_DDOT>0</MEAN_MOTION_DDOT></tleParameters></data></segment></body></omm>

</ndm>
