KUIPER-00071            
1 64818U 25151C   25210.21819389  .00012837  00000+0  37531-3 0  9994
2 64818  51.8779 225.1671 0005241 183.2006 176.8947 15.35614726  1971
KUIPER-00072            
1 64819U 25151D   25210.22093828  .00013534  00000+0  39982-3 0  9995
2 64819  51.8772 225.1794 0004854 195.4182 164.6656 15.35239410  1986
KUIPER-00073            
1 64820U 25151E   25210.22006991  .00012530  00000+0  36975-3 0  9996
2 64820  51.8785 225.1808 0005013 190.2031 169.8854 15.35347828  3164
KUIPER-00074            
1 64821U 25151F   25210.21963698  .00014533  00000+0  42570-3 0  9995
2 64821  51.8771 225.1708 0005164 191.8882 168.1983 15.35441094  1980
KUIPER-00075            
1 64822U 25151G   25210.47924834  .00019765  00000+0  57371-3 0  9990
2 64822  51.8781 223.9177 0004960 183.6768 176.4182 15.35492224  2023
KUIPER-00076            
1 64823U 25151H   25210.22035212  .00012221  00000+0  36134-3 0  9991
2 64823  51.8772 225.1756 0004896 191.9754 168.1116 15.35309776  1984
KUIPER-00077            
1 64824U 25151J   25209.76618395  .00009540  00000+0  28615-3 0  9993
2 64824  51.8788 227.3875 0005516 197.5997 162.4799 15.35135701  1900
KUIPER-00078            
1 64825U 25151K   25210.22160830  .00019490  00000+0  57124-3 0  9995
2 64825  51.8780 225.1864 0005617 202.5000 157.5740 15.35193642  1988
